{"type":"FeatureCollection","features":[{"type":"Feature","properties":{"PixelVal":34},"geometry":{"type":"Polygon","coordinates":[[[10,3],[8,5],[5,5],[3,3],[5,0],[8,0],[10,3]],[[6,1],[5,3],[7,4],[8,2],[6,1]]]}},{"type":"Feature","properties":{"PixelVal":34},"geometry":{"type":"Polygon","coordinates":[[[18,11],[5,11],[15,0],[18,0],[18,11]],[[17,1],[8,10],[17,10],[17,1]]]}},{"type":"Feature","properties":{"PixelVal":34},"geometry":{"type":"Polygon","coordinates":[[[5,8],[1,9],[1,6],[4,6],[5,8]],[[2,7],[3,8],[2,7]]]}}]}